GLOBALSTAR M063         
1 26081U 00008A   25310.17379932 -.00000097  00000+0 -20748-3 0  9998
2 26081  51.9933  97.6247 0004159 213.8532 317.6337 11.86176955174424
GLOBALSTAR M062         
1 26082U 00008B   25309.50303781 -.00000035  00000+0  45216-3 0  9991
2 26082  51.9865  40.2094 0007431  59.0038 314.0833 12.43476415514204
GLOBALSTAR M060         
1 26083U 00008C   25309.59990120 -.00000165  00000+0 -73150-3 0  9993
2 26083  52.0048  19.9401 0003462  61.9067  86.2531 12.17667640169593
GLOBALSTAR M064         
1 26084U 00008D   25309.76688872 -.00000047  00000+0  51501-3 0  9995
2 26084  52.0013 195.8597 0001695   7.9804 352.1056 11.88537831183937
GLOBALSTAR M065         
1 31571U 07020A   25310.33479412 -.00000037  00000+0  37267-3 0  9998
2 31571  51.9868 153.6122 0009002 262.7480 268.0128 12.62012905851353
GLOBALSTAR M069         
1 31573U 07020C   25310.01521020 -.00000035  00000+0  53503-3 0  9997
2 31573  52.0008 163.7881 0002788  60.9092  87.1501 12.23463054851489
GLOBALSTAR M072         
1 31574U 07020D   25310.27362708 -.00000066  00000+0  25328-3 0  9990
2 31574  51.9953 333.7022 0000985 234.3932 208.6124 11.91652872848401
GLOBALSTAR M071         
1 31576U 07020F   25309.99628814  .00000018  00000+0  10753-2 0  9993
2 31576  52.0047 193.4581 0001817  54.4646  48.5905 12.18261176512227
